{"fetched_at":"2026-07-19T07:04:49.137Z","source":"https://celestrak.org/NORAD/elements/gp.php?GROUP=oneweb&FORMAT=JSON","constellation":"oneweb","records":[{"OBJECT_NAME":"ONEWEB-0349","OBJECT_ID":"2021-090C","EPOCH":"2026-07-18T17:49:37.384320","CLASSIFICATION_TYPE":"U","MEAN_MOTION":13.20770668,"ECCENTRICITY":0.0002081,"INCLINATION":87.9183,"RA_OF_ASC_NODE":268.1534,"ARG_OF_PERICENTER":97.7828,"MEAN_ANOMALY":262.3541,"EPHEMERIS_TYPE":0,"NORAD_CAT_ID":49281,"ELEMENT_SET_NO":999,"REV_AT_EPOCH":23399,"BSTAR":0.00016502,"MEAN_MOTION_DOT":8e-7,"MEAN_MOTION_DDOT":0},{"OBJECT_NAME":"ONEWEB-0353","OBJECT_ID":"2021-090D","EPOCH":"2026-07-18T17:21:47.954016","CLASSIFICATION_TYPE":"U","MEAN_MOTION":13.14502735,"ECCENTRICITY":0.0002007,"INCLINATION":87.8967,"RA_OF_ASC_NODE":283.4219,"ARG_OF_PERICENTER":107.3065,"MEAN_ANOMALY":252.8285,"EPHEMERIS_TYPE":0,"NORAD_CAT_ID":49282,"ELEMENT_SET_NO":999,"REV_AT_EPOCH":23172,"BSTAR":-0.00077107,"MEAN_MOTION_DOT":-0.00000273,"MEAN_MOTION_DDOT":0},{"OBJECT_NAME":"ONEWEB-0356","OBJECT_ID":"2021-090E","EPOCH":"2026-07-18T17:47:12.469920","CLASSIFICATION_TYPE":"U","MEAN_MOTION":13.20771663,"ECCENTRICITY":0.0001249,"INCLINATION":87.918,"RA_OF_ASC_NODE":268.1471,"ARG_OF_PERICENTER":98.7317,"MEAN_ANOMALY":261.3958,"EPHEMERIS_TYPE":0,"NORAD_CAT_ID":49283,"ELEMENT_SET_NO":999,"REV_AT_EPOCH":23399,"BSTAR":0.00017495,"MEAN_MOTION_DOT":8.4e-7,"MEAN_MOTION_DDOT":0},{"OBJECT_NAME":"ONEWEB-0358","OBJECT_ID":"2021-090F","EPOCH":"2026-07-18T16:50:13.030944","CLASSIFICATION_TYPE":"U","MEAN_MOTION":13.20770639,"ECCENTRICITY":0.000193,"INCLINATION":87.9183,"RA_OF_ASC_NODE":268.1625,"ARG_OF_PERICENTER":95.4438,"MEAN_ANOMALY":264.6915,"EPHEMERIS_TYPE":0,"NORAD_CAT_ID":49284,"ELEMENT_SET_NO":999,"REV_AT_EPOCH":23471,"BSTAR":0.000087253,"MEAN_MOTION_DOT":4.8e-7,"MEAN_MOTION_DDOT":0},{"OBJECT_NAME":"ONEWEB-0359","OBJECT_ID":"2021-090G","EPOCH":"2026-07-18T16:36:53.876736","CLASSIFICATION_TYPE":"U","MEAN_MOTION":13.20770121,"ECCENTRICITY":0.0002081,"INCLINATION":87.9181,"RA_OF_ASC_NODE":268.1566,"ARG_OF_PERICENTER":90.2108,"MEAN_ANOMALY":269.9263,"EPHEMERIS_TYPE":0,"NORAD_CAT_ID":49285,"ELEMENT_SET_NO":999,"REV_AT_EPOCH":23469,"BSTAR":-0.000015979,"MEAN_MOTION_DOT":6e-8,"MEAN_MOTION_DDOT":0},{"OBJECT_NAME":"ONEWEB-0360","OBJECT_ID":"2021-090H","EPOCH":"2026-07-18T16:22:22.590624","CLASSIFICATION_TYPE":"U","MEAN_MOTION":13.20771543,"ECCENTRICITY":0.0002194,"INCLINATION":87.918,"RA_OF_ASC_NODE":268.1652,"ARG_OF_PERICENTER":97.1812,"MEAN_ANOMALY":262.9571,"EPHEMERIS_TYPE":0,"NORAD_CAT_ID":49286,"ELEMENT_SET_NO":999,"REV_AT_EPOCH":23400,"BSTAR":0.000073205,"MEAN_MOTION_DOT":4.3e-7,"MEAN_MOTION_DDOT":0},{"OBJECT_NAME":"ONEWEB-0361","OBJECT_ID":"2021-090J","EPOCH":"2026-07-18T17:44:46.032288","CLASSIFICATION_TYPE":"U","MEAN_MOTION":13.20773158,"ECCENTRICITY":0.0001981,"INCLINATION":87.9183,"RA_OF_ASC_NODE":268.152,"ARG_OF_PERICENTER":94.645,"MEAN_ANOMALY":265.4909,"EPHEMERIS_TYPE":0,"NORAD_CAT_ID":49287,"ELEMENT_SET_NO":999,"REV_AT_EPOCH":23446,"BSTAR":0.00010269,"MEAN_MOTION_DOT":5.5e-7,"MEAN_MOTION_DDOT":0},{"OBJECT_NAME":"ONEWEB-0362","OBJECT_ID":"2021-090K","EPOCH":"2026-07-18T19:01:38.836704","CLASSIFICATION_TYPE":"U","MEAN_MOTION":13.1973852,"ECCENTRICITY":0.0002315,"INCLINATION":87.9186,"RA_OF_ASC_NODE":298.685,"ARG_OF_PERICENTER":100.3023,"MEAN_ANOMALY":259.8371,"EPHEMERIS_TYPE":0,"NORAD_CAT_ID":49288,"ELEMENT_SET_NO":999,"REV_AT_EPOCH":23108,"BSTAR":0.003223,"MEAN_MOTION_DOT":0.00001304,"MEAN_MOTION_DDOT":0},{"OBJECT_NAME":"ONEWEB-0363","OBJECT_ID":"2021-090L","EPOCH":"2026-07-18T18:06:35.978976","CLASSIFICATION_TYPE":"U","MEAN_MOTION":13.20774462,"ECCENTRICITY":0.0001821,"INCLINATION":87.9184,"RA_OF_ASC_NODE":268.1494,"ARG_OF_PERICENTER":96.3713,"MEAN_ANOMALY":263.7628,"EPHEMERIS_TYPE":0,"NORAD_CAT_ID":49289,"ELEMENT_SET_NO":999,"REV_AT_EPOCH":23447,"BSTAR":-0.0011448,"MEAN_MOTION_DOT":-0.00000452,"MEAN_MOTION_DDOT":0},{"OBJECT_NAME":"ONEWEB-0364","OBJECT_ID":"2021-090M","EPOCH":"2026-07-18T15:24:10.457280","CLASSIFICATION_TYPE":"U","MEAN_MOTION":13.20770585,"ECCENTRICITY":0.0002101,"INCLINATION":87.9182,"RA_OF_ASC_NODE":268.1792,"ARG_OF_PERICENTER":99.3824,"MEAN_ANOMALY":260.7547,"EPHEMERIS_TYPE":0,"NORAD_CAT_ID":49290,"ELEMENT_SET_NO":999,"REV_AT_EPOCH":23559,"BSTAR":-0.000026805,"MEAN_MOTION_DOT":2e-8,"MEAN_MOTION_DDOT":0},{"OBJECT_NAME":"ONEWEB-0365","OBJECT_ID":"2021-090N","EPOCH":"2026-07-18T19:15:19.248768","CLASSIFICATION_TYPE":"U","MEAN_MOTION":13.19726132,"ECCENTRICITY":0.0002082,"INCLINATION":87.9193,"RA_OF_ASC_NODE":298.6732,"ARG_OF_PERICENTER":102.4173,"MEAN_ANOMALY":257.7193,"EPHEMERIS_TYPE":0,"NORAD_CAT_ID":49291,"ELEMENT_SET_NO":999,"REV_AT_EPOCH":23059,"BSTAR":-0.00011784,"MEAN_MOTION_DOT":-3.4e-7,"MEAN_MOTION_DDOT":0},{"OBJECT_NAME":"ONEWEB-0366","OBJECT_ID":"2021-090P","EPOCH":"2026-07-18T17:17:14.454816","CLASSIFICATION_TYPE":"U","MEAN_MOTION":13.14502522,"ECCENTRICITY":0.0002027,"INCLINATION":87.8965,"RA_OF_ASC_NODE":283.4238,"ARG_OF_PERICENTER":98.1673,"MEAN_ANOMALY":261.9687,"EPHEMERIS_TYPE":0,"NORAD_CAT_ID":49292,"ELEMENT_SET_NO":999,"REV_AT_EPOCH":23170,"BSTAR":-0.00058347,"MEAN_MOTION_DOT":-0.00000204,"MEAN_MOTION_DDOT":0},{"OBJECT_NAME":"ONEWEB-0367","OBJECT_ID":"2021-090Q","EPOCH":"2026-07-18T16:16:17.126400","CLASSIFICATION_TYPE":"U","MEAN_MOTION":13.20773592,"ECCENTRICITY":0.000222,"INCLINATION":87.9182,"RA_OF_ASC_NODE":268.166,"ARG_OF_PERICENTER":100.5663,"MEAN_ANOMALY":259.572,"EPHEMERIS_TYPE":0,"NORAD_CAT_ID":49293,"ELEMENT_SET_NO":999,"REV_AT_EPOCH":23398,"BSTAR":0.00013839,"MEAN_MOTION_DOT":6.9e-7,"MEAN_MOTION_DDOT":0},{"OBJECT_NAME":"ONEWEB-0368","OBJECT_ID":"2021-090R","EPOCH":"2026-07-18T17:27:49.745376","CLASSIFICATION_TYPE":"U","MEAN_MOTION":13.207651,"ECCENTRICITY":0.0001827,"INCLINATION":87.9183,"RA_OF_ASC_NODE":268.1606,"ARG_OF_PERICENTER":125.6713,"MEAN_ANOMALY":234.4591,"EPHEMERIS_TYPE":0,"NORAD_CAT_ID":49294,"ELEMENT_SET_NO":999,"REV_AT_EPOCH":23514,"BSTAR":0.00081369,"MEAN_MOTION_DOT":0.00000344,"MEAN_MOTION_DDOT":0},{"OBJECT_NAME":"ONEWEB-0369","OBJECT_ID":"2021-090S","EPOCH":"2026-07-18T19:08:29.814720","CLASSIFICATION_TYPE":"U","MEAN_MOTION":13.19726545,"ECCENTRICITY":0.0001997,"INCLINATION":87.9183,"RA_OF_ASC_NODE":298.6793,"ARG_OF_PERICENTER":103.2857,"MEAN_ANOMALY":256.8499,"EPHEMERIS_TYPE":0,"NORAD_CAT_ID":49295,"ELEMENT_SET_NO":999,"REV_AT_EPOCH":23058,"BSTAR":-0.00018687,"MEAN_MOTION_DOT":-6.2e-7,"MEAN_MOTION_DDOT":0},{"OBJECT_NAME":"ONEWEB-0370","OBJECT_ID":"2021-090T","EPOCH":"2026-07-18T16:29:37.999104","CLASSIFICATION_TYPE":"U","MEAN_MOTION":13.20772069,"ECCENTRICITY":0.0002321,"INCLINATION":87.9183,"RA_OF_ASC_NODE":268.1633,"ARG_OF_PERICENTER":92.8548,"MEAN_ANOMALY":267.2851,"EPHEMERIS_TYPE":0,"NORAD_CAT_ID":49296,"ELEMENT_SET_NO":999,"REV_AT_EPOCH":23402,"BSTAR":0.000080794,"MEAN_MOTION_DOT":4.6e-7,"MEAN_MOTION_DDOT":0}]}
